[{"OBJECT_NAME":"STARLINK-32143","OBJECT_ID":"2024-132U","EPOCH":"2026-03-09T06:36:13.118976","MEAN_MOTION":15.30188061,"ECCENTRICITY":0.00012891,"INCLINATION":53.1612,"RA_OF_ASC_NODE":54.5906,"ARG_OF_PERICENTER":100.8585,"MEAN_ANOMALY":259.2561,"EPHEMERIS_TYPE":0,"CLASSIFICATION_TYPE":"U","NORAD_CAT_ID":60296,"ELEMENT_SET_NO":999,"REV_AT_EPOCH":9149,"BSTAR":-1.2130628e-5,"MEAN_MOTION_DOT":-7.18e-6,"MEAN_MOTION_DDOT":0},{"OBJECT_NAME":"OBJECT B","OBJECT_ID":"2024-205B","EPOCH":"2026-03-09T23:46:05.115936","MEAN_MOTION":15.28158697,"ECCENTRICITY":0.00105957,"INCLINATION":97.4192,"RA_OF_ASC_NODE":146.9311,"ARG_OF_PERICENTER":34.0947,"MEAN_ANOMALY":326.0972,"EPHEMERIS_TYPE":0,"CLASSIFICATION_TYPE":"U","NORAD_CAT_ID":61895,"ELEMENT_SET_NO":999,"REV_AT_EPOCH":7352,"BSTAR":0.00054154807,"MEAN_MOTION_DOT":0.00014827,"MEAN_MOTION_DDOT":0}]
